{
  "type": "FeatureCollection",
  "features": [
    {
      "type": "Feature",
      "properties": {
        "norad_id": 33913,
        "name": "COSMOS 2251 DEB",
        "group": "cosmos-2251-debris",
        "lat": 63.79758328880379,
        "lon": -20.914749588784478,
        "alt_km": 758.0995473627081,
        "timestamp": "2025-12-06T20:37:56.468391+00:00",
        "meta_object_name": "COSMOS 2251 DEB",
        "meta_object_id": "1993-036DS",
        "meta_epoch": "2025-12-06T15:24:17.326944",
        "meta_mean_motion": 14.48451237,
        "meta_eccentricity": 0.00481712,
        "meta_inclination": 74.0334,
        "meta_ra_of_asc_node": 195.069,
        "meta_arg_of_pericenter": 298.7658,
        "meta_mean_anomaly": 116.8588,
        "meta_ephemeris_type": 0,
        "meta_classification_type": "U",
        "meta_norad_cat_id": 33913,
        "meta_element_set_no": 999,
        "meta_rev_at_epoch": 88369,
        "meta_bstar": 0.00099985369,
        "meta_mean_motion_dot": 3.777e-05,
        "meta_mean_motion_ddot": 0,
        "tle_line1": "1 33913U 93036DS  25340.64186721  .00003777  00000+0  99985-3 0  9995",
        "tle_line2": "2 33913  74.0334 195.0690 0048171 298.7658 116.8588 14.48451237883698"
      },
      "geometry": {
        "type": "Point",
        "coordinates": [
          -20.914749588784478,
          63.79758328880379
        ]
      }
    },
    {
      "type": "Feature",
      "properties": {
        "norad_id": 33914,
        "name": "COSMOS 2251 DEB",
        "group": "cosmos-2251-debris",
        "lat": -70.02057267539375,
        "lon": -103.5465207626519,
        "alt_km": 1133.659208131994,
        "timestamp": "2025-12-06T20:37:56.468403+00:00",
        "meta_object_name": "COSMOS 2251 DEB",
        "meta_object_id": "1993-036DT",
        "meta_epoch": "2025-12-06T14:41:50.552160",
        "meta_mean_motion": 13.71976854,
        "meta_eccentricity": 0.03017069,
        "meta_inclination": 74.0915,
        "meta_ra_of_asc_node": 25.1925,
        "meta_arg_of_pericenter": 129.7121,
        "meta_mean_anomaly": 344.3504,
        "meta_ephemeris_type": 0,
        "meta_classification_type": "U",
        "meta_norad_cat_id": 33914,
        "meta_element_set_no": 999,
        "meta_rev_at_epoch": 83997,
        "meta_bstar": 0.00089932663,
        "meta_mean_motion_dot": 1.109e-05,
        "meta_mean_motion_ddot": 0,
        "tle_line1": "1 33914U 93036DT  25340.61239065  .00001109  00000+0  89933-3 0  9992",
        "tle_line2": "2 33914  74.0915  25.1925 0301706 129.7121 344.3504 13.71976854839972"
      },
      "geometry": {
        "type": "Point",
        "coordinates": [
          -103.5465207626519,
          -70.02057267539375
        ]
      }
    },
    {
      "type": "Feature",
      "properties": {
        "norad_id": 33915,
        "name": "COSMOS 2251 DEB",
        "group": "cosmos-2251-debris",
        "lat": 54.79795937064229,
        "lon": -159.0406038089538,
        "alt_km": 697.6585764696474,
        "timestamp": "2025-12-06T20:37:56.468414+00:00",
        "meta_object_name": "COSMOS 2251 DEB",
        "meta_object_id": "1993-036DU",
        "meta_epoch": "2025-12-06T15:36:27.457056",
        "meta_mean_motion": 14.35061142,
        "meta_eccentricity": 0.01047608,
        "meta_inclination": 74.0446,
        "meta_ra_of_asc_node": 45.2669,
        "meta_arg_of_pericenter": 139.4209,
        "meta_mean_anomaly": 341.4914,
        "meta_ephemeris_type": 0,
        "meta_classification_type": "U",
        "meta_norad_cat_id": 33915,
        "meta_element_set_no": 999,
        "meta_rev_at_epoch": 87670,
        "meta_bstar": 0.00084718101,
        "meta_mean_motion_dot": 2.545e-05,
        "meta_mean_motion_ddot": 0,
        "tle_line1": "1 33915U 93036DU  25340.65031779  .00002545  00000+0  84718-3 0  9990",
        "tle_line2": "2 33915  74.0446  45.2669 0104760 139.4209 341.4914 14.35061142876707"
      },
      "geometry": {
        "type": "Point",
        "coordinates": [
          -159.0406038089538,
          54.79795937064229
        ]
      }
    },
    {
      "type": "Feature",
      "properties": {
        "norad_id": 33916,
        "name": "COSMOS 2251 DEB",
        "group": "cosmos-2251-debris",
        "lat": -49.953561103783684,
        "lon": -109.86184114599115,
        "alt_km": 773.5936963924696,
        "timestamp": "2025-12-06T20:37:56.468425+00:00",
        "meta_object_name": "COSMOS 2251 DEB",
        "meta_object_id": "1993-036DV",
        "meta_epoch": "2025-12-06T10:48:01.003968",
        "meta_mean_motion": 13.68602684,
        "meta_eccentricity": 0.03254718,
        "meta_inclination": 74.0531,
        "meta_ra_of_asc_node": 50.923,
        "meta_arg_of_pericenter": 224.4017,
        "meta_mean_anomaly": 150.0529,
        "meta_ephemeris_type": 0,
        "meta_classification_type": "U",
        "meta_norad_cat_id": 33916,
        "meta_element_set_no": 999,
        "meta_rev_at_epoch": 83805,
        "meta_bstar": 0.00096082732,
        "meta_mean_motion_dot": 1.17e-05,
        "meta_mean_motion_ddot": 0,
        "tle_line1": "1 33916U 93036DV  25340.45001162  .00001170  00000+0  96083-3 0  9993",
        "tle_line2": "2 33916  74.0531  50.9230 0325471 224.4017 150.0529 13.68602684838055"
      },
      "geometry": {
        "type": "Point",
        "coordinates": [
          -109.86184114599115,
          -49.953561103783684
        ]
      }
    },
    {
      "type": "Feature",
      "properties": {
        "norad_id": 33917,
        "name": "COSMOS 2251 DEB",
        "group": "cosmos-2251-debris",
        "lat": -60.1069726418108,
        "lon": 102.32475404080296,
        "alt_km": 885.677712572041,
        "timestamp": "2025-12-06T20:37:56.468435+00:00",
        "meta_object_name": "COSMOS 2251 DEB",
        "meta_object_id": "1993-036DW",
        "meta_epoch": "2025-12-06T10:25:36.300288",
        "meta_mean_motion": 13.69343619,
        "meta_eccentricity": 0.03311262,
        "meta_inclination": 74.1065,
        "meta_ra_of_asc_node": 132.7317,
        "meta_arg_of_pericenter": 235.0704,
        "meta_mean_anomaly": 121.8896,
        "meta_ephemeris_type": 0,
        "meta_classification_type": "U",
        "meta_norad_cat_id": 33917,
        "meta_element_set_no": 999,
        "meta_rev_at_epoch": 83647,
        "meta_bstar": 0.0011297196,
        "meta_mean_motion_dot": 1.419e-05,
        "meta_mean_motion_ddot": 0,
        "tle_line1": "1 33917U 93036DW  25340.43444792  .00001419  00000+0  11297-2 0  9991",
        "tle_line2": "2 33917  74.1065 132.7317 0331126 235.0704 121.8896 13.69343619836477"
      },
      "geometry": {
        "type": "Point",
        "coordinates": [
          102.32475404080296,
          -60.1069726418108
        ]
      }
    },
    {
      "type": "Feature",
      "properties": {
        "norad_id": 33920,
        "name": "COSMOS 2251 DEB",
        "group": "cosmos-2251-debris",
        "lat": -60.473517243042906,
        "lon": -80.70489912747827,
        "alt_km": 680.7391829629178,
        "timestamp": "2025-12-06T20:37:56.468446+00:00",
        "meta_object_name": "COSMOS 2251 DEB",
        "meta_object_id": "1993-036DZ",
        "meta_epoch": "2025-12-05T23:31:13.622592",
        "meta_mean_motion": 14.58081418,
        "meta_eccentricity": 0.00386381,
        "meta_inclination": 74.0606,
        "meta_ra_of_asc_node": 311.2693,
        "meta_arg_of_pericenter": 319.2446,
        "meta_mean_anomaly": 40.5829,
        "meta_ephemeris_type": 0,
        "meta_classification_type": "U",
        "meta_norad_cat_id": 33920,
        "meta_element_set_no": 999,
        "meta_rev_at_epoch": 88016,
        "meta_bstar": 0.0032522001,
        "meta_mean_motion_dot": 0.00015127,
        "meta_mean_motion_ddot": 0,
        "tle_line1": "1 33920U 93036DZ  25339.98001878  .00015127  00000+0  32522-2 0  9992",
        "tle_line2": "2 33920  74.0606 311.2693 0038638 319.2446  40.5829 14.58081418880165"
      },
      "geometry": {
        "type": "Point",
        "coordinates": [
          -80.70489912747827,
          -60.473517243042906
        ]
      }
    },
    {
      "type": "Feature",
      "properties": {
        "norad_id": 33922,
        "name": "COSMOS 2251 DEB",
        "group": "cosmos-2251-debris",
        "lat": -71.88246575664188,
        "lon": 39.74712282104418,
        "alt_km": 717.9511749169396,
        "timestamp": "2025-12-06T20:37:56.468457+00:00",
        "meta_object_name": "COSMOS 2251 DEB",
        "meta_object_id": "1993-036EB",
        "meta_epoch": "2025-12-06T14:47:03.271776",
        "meta_mean_motion": 14.49474663,
        "meta_eccentricity": 0.00232815,
        "meta_inclination": 74.0466,
        "meta_ra_of_asc_node": 159.2448,
        "meta_arg_of_pericenter": 270.5316,
        "meta_mean_anomaly": 159.8216,
        "meta_ephemeris_type": 0,
        "meta_classification_type": "U",
        "meta_norad_cat_id": 33922,
        "meta_element_set_no": 999,
        "meta_rev_at_epoch": 88489,
        "meta_bstar": 0.00082641458,
        "meta_mean_motion_dot": 3.15e-05,
        "meta_mean_motion_ddot": 0,
        "tle_line1": "1 33922U 93036EB  25340.61601009  .00003150  00000+0  82641-3 0  9999",
        "tle_line2": "2 33922  74.0466 159.2448 0023281 270.5316 159.8216 14.49474663884898"
      },
      "geometry": {
        "type": "Point",
        "coordinates": [
          39.74712282104418,
          -71.88246575664188
        ]
      }
    }
  ]
}